NORAD_CAT_ID,OBJECT_NAME,OBJECT_TYPE,EPOCH,MEAN_MOTION,ECCENTRICITY,INCLINATION,RA_OF_ASC_NODE,ARG_OF_PERICENTER,MEAN_ANOMALY,BSTAR,MEAN_MOTION_DOT,MEAN_MOTION_DDOT,TLE_LINE0,TLE_LINE1,TLE_LINE2,SEMIMAJOR_AXIS,PERIOD,APOGEE,PERIGEE,DECAYED
52877.0,STARLINK-4214,PAYLOAD,2023-02-12 09:56:30,15.0885983,8.26e-05,53.2182,7.7183,126.4821,233.6247,0.0008795,0.00013745,0.0,0 STARLINK-4214,1 52877U 22062AZ  23043.41424068  .00013745  00000-0  87950-3 0  9994,2 52877  53.2182   7.7183 0000826 126.4821 233.6247 15.08859830 36797,6917.82,95.436,540.256,539.113,0.0
52877.0,STARLINK-4214,PAYLOAD,2023-02-13 05:01:09,15.08848604,0.0001104,53.2189,4.1508,89.4134,270.6985,0.00086221,0.00013464,0.0,0 STARLINK-4214,1 52877U 22062AZ  23044.20913432  .00013464  00000-0  86221-3 0  9998,2 52877  53.2189   4.1508 0001104  89.4134 270.6985 15.08848604 37407,6917.854,95.437,540.483,538.955,0.0
52877.0,STARLINK-4214,PAYLOAD,2023-02-13 08:11:55,15.08861186,8.19e-05,53.2184,3.5556,78.5227,281.5857,0.0013255,0.00020882,0.0,0 STARLINK-4214,1 52877U 22062AZ  23044.34161252  .00020882  00000-0  13255-2 0  9996,2 52877  53.2184   3.5556 0000819  78.5227 281.5857 15.08861186 36938,6917.816,95.436,540.247,539.114,0.0
52877.0,STARLINK-4214,PAYLOAD,2023-02-13 14:33:28,15.0883429,7.74e-05,53.2182,2.366,86.9905,273.1175,0.0003885,5.9e-05,0.0,0 STARLINK-4214,1 52877U 22062AZ  23044.60657718  .00005900  00000-0  38850-3 0  9995,2 52877  53.2182   2.3660 0000774  86.9905 273.1175 15.08834290 37460,6917.898,95.438,540.298,539.227,0.0
52877.0,STARLINK-4214,PAYLOAD,2023-02-14 03:16:33,15.08854792,0.0001037,53.2181,359.9873,90.0534,270.0577,0.0010546,0.00016543,0.0,0 STARLINK-4214,1 52877U 22062AZ  23045.13649839  .00016543  00000-0  10546-2 0  9995,2 52877  53.2181 359.9873 0001037  90.0534 270.0577 15.08854792 37543,6917.835,95.437,540.418,538.983,0.0
52877.0,STARLINK-4214,PAYLOAD,2023-02-14 14:24:15,15.08851897,0.0001094,53.2185,357.9054,97.0302,263.0814,0.0011783,0.0001852,0.0,0 STARLINK-4214,1 52877U 22062AZ  23045.60017973  .00018520  00000-0  11783-2 0  9996,2 52877  53.2185 357.9054 0001094  97.0302 263.0814 15.08851897 37122,6917.844,95.437,540.466,538.952,0.0
52877.0,STARLINK-4214,PAYLOAD,2023-02-15 03:07:20,15.08859365,0.000168,53.2187,355.5268,82.8494,277.269,0.001238,0.0001948,0.0,0 STARLINK-4214,1 52877U 22062AZ  23046.13009643  .00019480  00000-0  12380-2 0  9990,2 52877  53.2187 355.5268 0001680  82.8494 277.2690 15.08859365 37699,6917.821,95.436,540.848,538.524,0.0
52877.0,STARLINK-4214,PAYLOAD,2023-02-15 20:36:34,15.08863746,0.0001464,53.2172,352.253,79.5709,280.5448,0.00095458,0.00014947,0.0,0 STARLINK-4214,1 52877U 22062AZ  23046.85873262  .00014947  00000-0  95458-3 0  9996,2 52877  53.2172 352.2530 0001464  79.5709 280.5448 15.08863746 37316,6917.808,95.436,540.686,538.66,0.0
52877.0,STARLINK-4214,PAYLOAD,2023-02-15 23:47:20,15.08867119,0.0001082,53.2191,351.6581,95.4283,264.6833,0.0010477,0.00016438,0.0,0 STARLINK-4214,1 52877U 22062AZ  23046.99120956  .00016438  00000-0  10477-2 0  9990,2 52877  53.2191 351.6581 0001082  95.4283 264.6833 15.08867119 37821,6917.797,95.436,540.411,538.914,0.0
52877.0,STARLINK-4214,PAYLOAD,2023-02-16 01:22:43,15.08870979,0.0001201,53.2189,351.3606,93.5493,266.5637,0.0011868,0.00018666,0.0,0 STARLINK-4214,1 52877U 22062AZ  23047.05744845  .00018666  00000-0  11868-2 0  9997,2 52877  53.2189 351.3606 0001201  93.5493 266.5637 15.08870979 37346,6917.786,95.436,540.482,538.82,0.0
52877.0,STARLINK-4214,PAYLOAD,2023-02-16 23:38:08,15.0884089,0.0002637,53.2196,347.2013,144.3631,215.7538,0.0015351,0.00024229,0.0,0 STARLINK-4214,1 52877U 22062AZ  23047.98481857  .00024229  00000-0  15351-2 0  9993,2 52877  53.2196 347.2013 0002637 144.3631 215.7538 15.08840890 37977,6917.878,95.437,541.567,537.918,0.0
52877.0,STARLINK-4214,PAYLOAD,2023-02-17 12:21:14,15.08814079,0.0001025,53.2193,344.8226,67.5643,292.5457,0.00059838,9.241e-05,0.0,0 STARLINK-4214,1 52877U 22062AZ  23048.51475297  .00009241  00000-0  59838-3 0  9990,2 52877  53.2193 344.8226 0001025  67.5643 292.5457 15.08814079 38055,6917.96,95.439,540.534,539.116,0.0
52877.0,STARLINK-4214,PAYLOAD,2023-02-18 05:50:29,15.08846236,0.000118,53.2191,341.5537,102.6143,257.4981,0.0016715,0.00026419,0.0,0 STARLINK-4214,1 52877U 22062AZ  23049.24339534  .00026419  00000-0  16715-2 0  9996,2 52877  53.2191 341.5537 0001180 102.6143 257.4981 15.08846236 38164,6917.861,95.437,540.543,538.91,0.0
52877.0,STARLINK-4214,PAYLOAD,2023-02-18 12:12:01,15.08837389,0.000105,53.219,340.3634,115.5698,244.5402,0.0004668,7.149e-05,0.0,0 STARLINK-4214,1 52877U 22062AZ  23049.50835487  .00007149  00000-0  46680-3 0  9997,2 52877  53.2190 340.3634 0001050 115.5698 244.5402 15.08837389 37716,6917.888,95.438,540.48,539.027,0.0
52877.0,STARLINK-4214,PAYLOAD,2023-02-19 12:02:48,15.08856385,0.0001038,53.2179,335.9022,100.1136,259.9973,0.00057913,8.945e-05,0.0,0 STARLINK-4214,1 52877U 22062AZ  23050.50194791  .00008945  00000-0  57913-3 0  9991,2 52877  53.2179 335.9022 0001038 100.1136 259.9973 15.08856385 37863,6917.83,95.437,540.413,538.977,0.0
52877.0,STARLINK-4214,PAYLOAD,2023-02-19 23:10:30,15.08854555,0.0001146,53.2179,333.8228,99.7346,260.3776,0.00031364,4.709e-05,0.0,0 STARLINK-4214,1 52877U 22062AZ  23050.96562544  .00004709  00000-0  31364-3 0  9992,2 52877  53.2179 333.8228 0001146  99.7346 260.3776 15.08854555 38421,6917.836,95.437,540.494,538.908,0.0
52877.0,STARLINK-4214,PAYLOAD,2023-02-20 11:53:36,15.08825829,0.0001538,53.2186,331.4422,80.8156,279.301,-0.00032586,-5.468e-05,0.0,0 STARLINK-4214,1 52877U 22062AZ  23051.49555592 -.00005468  00000-0 -32586-3 0  9998,2 52877  53.2186 331.4422 0001538  80.8156 279.3010 15.08825829 38506,6917.924,95.438,540.853,538.725,0.0
52877.0,STARLINK-4214,PAYLOAD,2023-02-21 11:44:23,15.08847943,9.65e-05,53.2189,326.9848,89.8843,270.226,0.00086909,0.00013574,0.0,0 STARLINK-4214,1 52877U 22062AZ  23052.48915945  .00013574  00000-0  86909-3 0  9993,2 52877  53.2189 326.9848 0000965  89.8843 270.2260 15.08847943 38659,6917.856,95.437,540.389,539.054,0.0
52877.0,STARLINK-4214,PAYLOAD,2023-02-22 03:38:12,15.08919899,0.0001153,53.218,324.0095,88.3417,271.7707,0.002337,0.00037183,0.0,0 STARLINK-4214,1 52877U 22062AZ  23053.15153701  .00037183  00000-0  23370-2 0  9996,2 52877  53.2180 324.0095 0001153  88.3417 271.7707 15.08919899 38757,6917.636,95.433,540.299,538.704,0.0
52877.0,STARLINK-4214,PAYLOAD,2023-02-23 08:15:10,15.08842704,5.88e-05,53.2172,318.6569,61.7523,298.3529,0.0018017,0.00028505,0.0,0 STARLINK-4214,1 52877U 22062AZ  23054.34387434  .00028505  00000-0  18017-2 0  9990,2 52877  53.2172 318.6569 0000588  61.7523 298.3529 15.08842704 38934,6917.872,95.437,540.144,539.33,0.0
52877.0,STARLINK-4214,PAYLOAD,2023-02-24 03:19:47,15.08889793,5.95e-05,53.217,315.0883,55.4184,304.6864,0.0018738,0.000297,0.0,0 STARLINK-4214,1 52877U 22062AZ  23055.13874016  .00029700  00000-0  18738-2 0  9993,2 52877  53.2170 315.0883 0000595  55.4184 304.6864 15.08889793 38564,6917.728,95.434,540.005,539.182,0.0
52877.0,STARLINK-4214,PAYLOAD,2023-02-24 17:38:15,15.08842824,5.41e-05,53.2171,312.4117,112.0547,248.0503,0.00062179,9.623e-05,0.0,0 STARLINK-4214,1 52877U 22062AZ  23055.73490535  .00009623  00000-0  62179-3 0  9990,2 52877  53.2171 312.4117 0000541 112.0547 248.0503 15.08842824 39140,6917.872,95.437,540.111,539.363,0.0
52877.0,STARLINK-4214,PAYLOAD,2023-02-24 23:59:48,15.08797611,0.0001369,53.2169,311.2217,90.7996,269.3153,0.00028619,4.265e-05,0.0,0 STARLINK-4214,1 52877U 22062AZ  23055.99987259  .00004265  00000-0  28619-3 0  9990,2 52877  53.2169 311.2217 0001369  90.7996 269.3153 15.08797611 39188,6918.01,95.44,540.822,538.928,0.0
52877.0,STARLINK-4214,PAYLOAD,2023-02-25 03:10:35,15.08778724,8.7e-05,53.2173,310.6285,65.9987,294.1096,0.00070091,0.00010866,0.0,0 STARLINK-4214,1 52877U 22062AZ  23056.13235998  .00010866  00000-0  70091-3 0  9998,2 52877  53.2173 310.6285 0000870  65.9987 294.1096 15.08778724 39200,6918.068,95.441,540.535,539.331,0.0
52877.0,STARLINK-4214,PAYLOAD,2023-02-25 20:39:51,15.08836186,5.77e-05,53.2173,307.3567,72.4213,287.6843,0.0025041,0.00039786,0.0,0 STARLINK-4214,1 52877U 22062AZ  23056.86101471  .00039786  00000-0  25041-2 0  9992,2 52877  53.2173 307.3567 0000577  72.4213 287.6843 15.08836186 38826,6917.892,95.438,540.156,539.358,0.0
52877.0,STARLINK-4214,PAYLOAD,2023-02-26 03:01:24,15.08857263,5.36e-05,53.2172,306.1672,71.1884,288.9167,0.0023732,0.00037702,0.0,0 STARLINK-4214,1 52877U 22062AZ  23057.12597330  .00037702  00000-0  23732-2 0  9996,2 52877  53.2172 306.1672 0000536  71.1884 288.9167 15.08857263 39355,6917.828,95.436,540.063,539.322,0.0
52877.0,STARLINK-4214,PAYLOAD,2023-02-27 01:16:45,15.08910315,5.45e-05,53.2174,302.0042,69.3893,290.7158,0.002075,0.00032954,0.0,0 STARLINK-4214,1 52877U 22062AZ  23058.05330739  .00032954  00000-0  20750-2 0  9998,2 52877  53.2174 302.0042 0000545  69.3893 290.7158 15.08910315 39496,6917.665,95.433,539.907,539.153,0.0
52877.0,STARLINK-4214,PAYLOAD,2023-02-27 17:10:36,15.08927416,4.28e-05,53.2173,299.0288,123.4514,236.652,0.0046332,0.00074407,0.0,0 STARLINK-4214,1 52877U 22062AZ  23058.71569582  .00074407  00000-0  46332-2 0  9994,2 52877  53.2173 299.0288 0000428 123.4514 236.6520 15.08927416 39597,6917.613,95.432,539.774,539.182,0.0
52877.0,STARLINK-4214,PAYLOAD,2023-02-27 21:56:45,15.08889631,6.46e-05,53.2173,298.1375,88.9919,271.1147,0.001944,0.00030828,0.0,0 STARLINK-4214,1 52877U 22062AZ  23058.91441422  .00030828  00000-0  19440-2 0  9997,2 52877  53.2173 298.1375 0000646  88.9919 271.1147 15.08889631 39135,6917.729,95.434,540.041,539.147,0.0
52877.0,STARLINK-4214,PAYLOAD,2023-02-28 01:07:31,15.08890494,5.58e-05,53.2162,297.5425,103.2436,256.8618,0.0018257,0.00028928,0.0,0 STARLINK-4214,1 52877U 22062AZ  23059.04689040  .00028928  00000-0  18257-2 0  9995,2 52877  53.2162 297.5425 0000558 103.2436 256.8618 15.08890494 39647,6917.726,95.434,539.977,539.205,0.0
